H1 CPF 01  gfz 2022 08 19 00  7311 tandemx   
H2 1003001  6202 36605    2022 08 19 00 59 42 2022 08 24 00 00 42   120 1 1  0 0 0
H9
10 0 59811  33102.000000  0   -4262174.387   3936215.411  -3722981.762
10 0 59811  33222.000000  0   -4447973.728   4372653.634  -2933757.990
10 0 59811  33342.000000  0   -4549264.278   4735398.105  -2093040.723
10 0 59811  33462.000000  0   -4565561.980   5016563.512  -1215550.340
10 0 59811  33582.000000  0   -4497999.737   5209694.105   -316686.224
10 0 59811  33702.000000  0   -4349287.494   5309913.293    587749.622
10 0 59811  33822.000000  0   -4123640.422   5314042.442   1481837.061
10 0 59811  33942.000000  0   -3826676.677   5220686.511   2349828.735
10 0 59811  34062.000000  0   -3465285.270   5030281.519   3176436.970
10 0 59811  34182.000000  0   -3047468.824   4745105.299   3947109.741
10 0 59811  34302.000000  0   -2582167.032   4369251.822   4648291.227
10 0 59811  34422.000000  0   -2079063.779   3908568.810   5267662.577
10 0 59811  34542.000000  0   -1548383.382   3370560.325   5794357.660
10 0 59811  34662.000000  0   -1000680.258   2764257.392   6219149.935
10 0 59811  34782.000000  0    -446627.684   2100059.592   6534607.707
10 0 59811  34902.000000  0     103189.517   1389552.939   6735217.559
10 0 59811  35022.000000  0     638476.901    645305.027   6817475.846
10 0 59811  35142.000000  0    1149422.393   -119357.718   6779945.088
10 0 59811  35262.000000  0    1626875.065   -890587.630   6623278.314
10 0 59811  35382.000000  0    2062508.740  -1654266.237   6350208.760
10 0 59811  35502.000000  0    2448967.681  -2396261.988   5965505.918
10 0 59811  35622.000000  0    2779992.859  -3102693.008   5475897.690
10 0 59811  35742.000000  0    3050525.550  -3760189.231   4889958.131
10 0 59811  35862.000000  0    3256786.700  -4356149.311   4217963.186
10 0 59811  35982.000000  0    3396331.474  -4878988.536   3471714.796
10 0 59811  36102.000000  0    3468075.997  -5318370.574   2664335.010
10 0 59811  36222.000000  0    3472296.467  -5665418.791   1810034.223
10 0 59811  36342.000000  0    3410599.523  -5912901.386    923857.039
10 0 59811  36462.000000  0    3285865.164  -6055384.323     21411.199
10 0 59811  36582.000000  0    3102164.600  -6089351.220   -881414.238
10 0 59811  36702.000000  0    2864652.266  -6013284.341  -1768739.377
10 0 59811  36822.000000  0    2579435.764  -5827703.750  -2624980.239
10 0 59811  36942.000000  0    2253428.824  -5535166.824  -3435129.120
10 0 59811  37062.000000  0    1894188.933  -5140226.147  -4185022.084
10 0 59811  37182.000000  0    1509744.972  -4649346.946  -4861585.128
10 0 59811  37302.000000  0    1108421.270  -4070789.931  -5453056.381
10 0 59811  37422.000000  0     698660.833  -3414462.379  -5949182.663
10 0 59811  37542.000000  0     288850.960  -2691740.338  -6341386.726
10 0 59811  37662.000000  0    -112844.752  -1915266.612  -6622903.958
10 0 59811  37782.000000  0    -498644.707  -1098728.201  -6788888.214
10 0 59811  37902.000000  0    -861295.185   -256616.843  -6836486.745
10 0 59811  38022.000000  0   -1194202.636    596023.816  -6764883.076
10 0 59811  38142.000000  0   -1491550.690   1443859.844  -6575308.788
10 0 59811  38262.000000  0   -1748399.303   2271535.871  -6271024.396
10 0 59811  38382.000000  0   -1960765.715   3063946.499  -5857270.467
10 0 59811  38502.000000  0   -2125686.521   3806509.120  -5341187.160
10 0 59811  38622.000000  0   -2241258.855   4485431.921  -4731702.504
10 0 59811  38742.000000  0   -2306660.997   5087974.119  -4039389.108
10 0 59811  38862.000000  0   -2322150.456   5602691.275  -3276289.443
10 0 59811  38982.000000  0   -2289039.184   6019660.418  -2455714.095
10 0 59811  39102.000000  0   -2209646.830   6330682.364  -1592014.688
10 0 59811  39222.000000  0   -2087232.884   6529453.200   -700332.534
10 0 59811  39342.000000  0   -1925908.661   6611700.671    203668.513
10 0 59811  39462.000000  0   -1730531.191   6575285.159   1104083.324
10 0 59811  39582.000000  0   -1506580.362   6420254.880   1985057.321
10 0 59811  39702.000000  0   -1260022.540   6148854.036   2831075.117
10 0 59811  39822.000000  0    -997165.832   5765487.953   3627240.516
10 0 59811  39942.000000  0    -724510.691   5276646.832   4359543.937
10 0 59811  40062.000000  0    -448598.950   4690788.084   5015114.184
10 0 59811  40182.000000  0    -175863.042   4018177.521   5582444.165
10 0 59811  40302.000000  0      87517.383   3270701.764   6051588.698
10 0 59811  40422.000000  0     335749.716   2461649.627   6414335.289
10 0 59811  40542.000000  0     563551.323   1605469.873   6664341.408
10 0 59811  40662.000000  0     766258.676    717509.243   6797239.778
10 0 59811  40782.000000  0     939920.429   -186263.879   6810708.971
10 0 59811  40902.000000  0    1081373.292  -1089545.319   6704512.218
10 0 59811  41022.000000  0    1188299.482  -1975989.133   6480502.036
10 0 59811  41142.000000  0    1259264.852  -2829503.182   6142590.453
10 0 59811  41262.000000  0    1293736.972  -3634543.185   5696684.849
10 0 59811  41382.000000  0    1292082.425  -4376398.312   5150588.693
10 0 59811  41502.000000  0    1255545.201  -5041463.136   4513870.888
10 0 59811  41622.000000  0    1186205.412  -5617494.610   3797704.910
10 0 59811  41742.000000  0    1086918.989  -6093847.925   3014675.646
10 0 59811  41862.000000  0     961239.554  -6461682.469   2178557.889
10 0 59811  41982.000000  0     813323.197  -6714135.133   1304072.354
10 0 59811  42102.000000  0     647819.610  -6846456.737    406622.079
10 0 59811  42222.000000  0     469751.683  -6856108.342   -497987.194
10 0 59811  42342.000000  0     284385.557  -6742810.095  -1393836.480
10 0 59811  42462.000000  0      97097.051  -6508543.054  -2265182.365
10 0 59811  42582.000000  0     -86762.866  -6157507.102  -3096739.810
10 0 59811  42702.000000  0    -262000.748  -5696035.975  -3873954.615
10 0 59811  42822.000000  0    -423708.230  -5132470.398  -4583259.726
10 0 59811  42942.000000  0    -567380.958  -4476993.782  -5212308.477
10 0 59811  43062.000000  0    -689026.411  -3741436.811  -5750182.534
10 0 59811  43182.000000  0    -785258.074  -2939054.633  -6187572.001
10 0 59811  43302.000000  0    -853374.430  -2084281.928  -6516925.588
10 0 59811  43422.000000  0    -891421.592  -1192470.994  -6732569.272
10 0 59811  43542.000000  0    -898238.909   -279618.118  -6830794.181
10 0 59811  43662.000000  0    -873486.314    637918.994  -6809913.143
10 0 59811  43782.000000  0    -817653.228   1543706.865  -6670285.485
10 0 59811  43902.000000  0    -732049.534   2421522.874  -6414311.497
10 0 59811  44022.000000  0    -618778.343   3255638.845  -6046396.530
10 0 59811  44142.000000  0    -480690.503   4031099.848  -5572884.273
10 0 59811  44262.000000  0    -321321.498   4733991.874  -5001957.517
10 0 59811  44382.000000  0    -144812.261   5351695.085  -4343508.657
10 0 59811  44502.000000  0      44185.111   5873118.281  -3608978.659
10 0 59811  44622.000000  0     240615.391   6288908.152  -2811166.435
10 0 59811  44742.000000  0     439139.719   6591629.183  -1964011.586
10 0 59811  44862.000000  0     634264.067   6775909.830  -1082352.656
10 0 59811  44982.000000  0     820473.817   6838549.689   -181664.932
10 0 59811  45102.000000  0     992371.074   6778584.327    722216.864
10 0 59811  45222.000000  0    1144811.039   6597304.577   1613384.935
10 0 59811  45342.000000  0    1273032.674   6298230.808   2476146.504
10 0 59811  45462.000000  0    1372781.284   5887043.399   3295307.870
10 0 59811  45582.000000  0    1440420.558   5371470.530   4056449.666
10 0 59811  45702.000000  0    1473031.395   4761134.853   4746185.494
10 0 59811  45822.000000  0    1468493.639   4067363.395   5352401.830
10 0 59811  45942.000000  0    1425548.267   3302965.182   5864466.814
10 0 59811  46062.000000  0    1343841.890   2481988.041   6273411.748
10 0 59811  46182.000000  0    1223950.359   1619454.189   6572083.506
10 0 59811  46302.000000  0    1067382.180    731080.583   6755263.730
10 0 59811  46422.000000  0     876561.382   -167009.009   6819753.263
10 0 59811  46542.000000  0     654790.265  -1058575.162   6764425.429
10 0 59811  46662.000000  0     406192.075  -1927556.675   6590245.548
10 0 59811  46782.000000  0     135634.336  -2758359.805   6300255.307
10 0 59811  46902.000000  0    -151365.554  -3536139.852   5899522.149
10 0 59811  47022.000000  0    -448749.910  -4247067.156   5395053.390
10 0 59811  47142.000000  0    -750044.277  -4878575.133   4795680.844
10 0 59811  47262.000000  0   -1048494.155  -5419590.376   4111914.917
10 0 59811  47382.000000  0   -1337212.340  -5860737.612   3355763.964
10 0 59811  47502.000000  0   -1609332.325  -6194511.392   2540523.975
10 0 59811  47622.000000  0   -1858165.074  -6415412.971   1680544.259
10 0 59811  47742.000000  0   -2077356.043  -6520048.741    790970.353
10 0 59811  47862.000000  0   -2261036.110  -6507185.831   -112530.270
10 0 59811  47982.000000  0   -2403963.582  -6377764.445  -1014052.756
10 0 59811  48102.000000  0   -2501654.037  -6134866.273  -1897743.588
10 0 59811  48222.000000  0   -2550494.946  -5783640.158  -2748087.267
10 0 59811  48342.000000  0   -2547841.795  -5331186.710  -3550185.127
10 0 59811  48462.000000  0   -2492093.054  -4786404.684  -4290019.255
10 0 59811  48582.000000  0   -2382742.686  -4159805.021  -4954695.461
10 0 59811  48702.000000  0   -2220409.879  -3463298.527  -5532662.125
10 0 59811  48822.000000  0   -2006845.996  -2709962.171  -6013902.735
10 0 59811  48942.000000  0   -1744918.212  -1913788.301  -6390099.751
10 0 59811  49062.000000  0   -1438570.129  -1089422.252  -6654766.749
10 0 59811  49182.000000  0   -1092761.931   -251894.328  -6803348.685
10 0 59811  49302.000000  0    -713390.816    583649.607  -6833291.119
10 0 59811  49422.000000  0    -307191.593   1402215.009  -6744079.113
10 0 59811  49542.000000  0     118379.559   2189220.554  -6537244.761
99
